INTELSAT 23 (IS-23)     
1 38867U 12057A   26194.12280050 -.00000287  00000+0  00000+0 0  9993
2 38867   0.0154  19.1421 0000313 172.4989  90.5714  1.00274090 50216
FM-6                    
1 39360U 13058A   26193.61120086 -.00000014  00000+0  00000+0 0  9997
2 39360   0.0177  43.8724 0001048 136.9706 213.3301  1.00266064 46324
INTELSAT 30 (IS-30)     
1 40271U 14062A   26193.82918095 -.00000152  00000+0  00000+0 0  9997
2 40271   0.0165  46.9734 0001200 336.3929 110.8103  1.00273200  7050
DIRECTV 14              
1 40333U 14078B   26194.11358661 -.00000127  00000+0  00000+0 0  9995
2 40333   0.0146  47.8789 0000266 261.4900 283.2679  1.00270003 42304
DIRECTV 15              
1 40663U 15026A   26193.61388752 -.00000102  00000+0  00000+0 0  9996
2 40663   0.0184  70.9457 0000099 201.8573 135.8290  1.00272075 40714
SKY MEXICO-1            
1 40664U 15026B   26194.21214588 -.00000237  00000+0  00000+0 0  9998
2 40664   0.0173  21.8599 0002331 113.6854 153.1185  1.00270544 40713
INTELSAT 34 (IS-34)     
1 40874U 15039A   26194.10409779 -.00000287  00000+0  00000+0 0  9996
2 40874   0.0107   1.3438 0000492 353.9217 277.7081  1.00271511 39896
INTELSAT 31 (IS-31)     
1 41581U 16035A   26194.11445328 -.00000153  00000+0  00000+0 0  9992
2 41581   0.0158 289.5231 0001150 353.5999 314.0289  1.00271575 36942
INTELSAT 36 (IS-36)     
1 41747U 16053A   26194.14680728 -.00000026  00000+0  00000+0 0  9993
2 41747   0.0102  18.5428 0002514 322.1017  71.7181  1.00270053 36219
INTELSAT 32E (IS-32E)   
1 41945U 17007B   26194.12470718  .00000000  00000+0  00000+0 0  9998
2 41945   0.0250  44.8942 0000426 284.8742 322.9651  1.00269412 34482
INTELSAT 35E (IS-35E)   
1 42818U 17041A   26193.91256184 -.00000239  00000+0  00000+0 0  9996
2 42818   0.0167  45.3733 0001581  65.1012 114.3450  1.00269769 33075
INTELSAT 37E (IS-37E)   
1 42950U 17059A   26194.03377860 -.00000143  00000+0  00000+0 0  9995
2 42950   0.0156  71.5028 0002485  47.5543 166.0149  1.00270449 32328
AZERSPACE 2 (IS-38)     
1 43632U 18074A   26194.14221394  .00000000  00000+0  00000+0 0  9994
2 43632   0.0256  41.9828 0001220  80.6995 264.6594  1.00269679 28700
HORIZONS-3E             
1 43633U 18074B   26194.09532419 -.00000033  00000+0  00000+0 0  9999
2 43633   0.0482 223.1894 0000976  65.1377 205.9637  1.00269520 28608
AT&T T-16               
1 44333U 19034A   26194.12470243 -.00000117  00000+0  00000+0 0  9997
2 44333   0.0150  52.5971 0000687 267.7575 274.6882  1.00269437 25897
INTELSAT 39 (IS-39)     
1 44476U 19049B   26194.14550727  .00000000  00000+0  00000+0 0  9999
2 44476   0.0267  46.5409 0000945 281.2397  77.5838  1.00269580 25387
GALAXY 30 (G-30)        
1 46114U 20056C   26194.19121832  .00000035  00000+0  00000+0 0  9994
2 46114   0.0180  34.6058 0001953  79.9439 120.3515  1.00271179 21550
GALAXY 33 (G-33)        
1 54026U 22128A   26194.10667757  .00000077  00000+0  00000+0 0  9995
2 54026   0.0123  15.1900 0001754 104.8375  76.3617  1.00271419 14006
GALAXY 34 (G-34)        
1 54027U 22128B   26193.96516197  .00000000  00000+0  00000+0 0  9996
2 54027   0.0243  20.8122 0001453 119.7956   8.7058  1.00273632 14170
GALAXY 31 (G-31)        
1 54243U 22153A   26194.19464652  .00000011  00000+0  00000+0 0  9990
2 54243   0.0210  74.6510 0000950  46.9277 118.5521  1.00270673  7393
GALAXY 32 (G-32)        
1 54244U 22153B   26194.11523328 -.00000176  00000+0  00000+0 0  9992
2 54244   0.0124  24.1776 0001455  22.4936 194.8053  1.00270119 13405
GALAXY 35 (G-35)        
1 54741U 22170A   26194.20542524  .00000000  00000+0  00000+0 0  9997
2 54741   0.0241  63.1864 0001897  53.9744 154.7760  1.00268793 13151
GALAXY 36 (G-36)        
1 54742U 22170B   26193.83039428 -.00000186  00000+0  00000+0 0  9996
2 54742   0.0298 108.9509 0002341 351.1655  40.5435  1.00270917 13036
GALAXY 37 (G-37)        
1 57493U 23112A   26194.03683662  .00000047  00000+0  00000+0 0  9992
2 57493   0.0192  70.6042 0001737  46.4804  60.0892  1.00271041 10805
